EUTELSAT 21B            
1 38992U 12062B   25259.23112634  .00000112  00000+0  00000+0 0  9999
2 38992   0.0707   9.0759 0002779 172.8352 278.3348  1.00274426 47080
EUTELSAT 70B            
1 39020U 12069A   25259.16950608 -.00000062  00000+0  00000+0 0  9997
2 39020   0.0663 345.5005 0004073 193.2756 308.1217  1.00272817 46763
EUTELSAT 117 WEST A     
1 39122U 13012A   25258.98965778 -.00000031  00000+0  00000+0 0  9998
2 39122   0.0299 291.6360 0002935 255.4726  47.5733  1.00273027 45680
EUTELSAT 7B             
1 39163U 13022A   25259.22826633  .00000029  00000+0  00000+0 0  9994
2 39163   0.0673 353.1512 0000752   7.6670  83.7672  1.00271566 45213
EXPRESS-AT1             
1 39612U 14010A   25259.16664606  .00000060  00000+0  00000+0 0  9999
2 39612   0.0190 199.6373 0000384 321.1030 310.6241  1.00272851 42072
EXPRESS-AT2             
1 39613U 14010B   25258.96911770 -.00000299  00000+0  00000+0 0  9999
2 39613   0.0172 238.2197 0000073  51.1796 194.4983  1.00272718 41758
EUTELSAT 3B             
1 39773U 14030A   25259.22748632  .00000002  00000+0  00000+0 0  9994
2 39773   0.0640 344.2950 0004528 192.9738 263.1557  1.00272864 41325
EUTELSAT 115 WEST B     
1 40425U 15010B   25259.13275925 -.00000043  00000+0  00000+0 0  9995
2 40425   0.0359  18.7629 0000068 286.7635 342.7074  1.00271606 38649
